{"type": "FeatureCollection", "features": [ {"type": "Feature", "properties": {"norad_id": 33980, "name": "COSMOS 2251 DEB", "group": "cosmos-2251-debris", "lat": -71.80845295402928, "lon": -7.957513970163553, "alt_km": 701.3601727221485, "timestamp": "2025-12-16T05:49:09.606507+00:00", "meta": {"OBJECT_NAME": "COSMOS 2251 DEB", "OBJECT_ID": "1993-036FP", "EPOCH": "2025-12-15T22:46:55.919712", "MEAN_MOTION": 14.58672433, "ECCENTRICITY": 0.00284993, "INCLINATION": 74.0221, "RA_OF_ASC_NODE": 53.2789, "ARG_OF_PERICENTER": 197.9624, "MEAN_ANOMALY": 341.4284, "EPHEMERIS_TYPE": 0, "CLASSIFICATION_TYPE": "U", "NORAD_CAT_ID": 33980, "ELEMENT_SET_NO": 999, "REV_AT_EPOCH": 88841, "BSTAR": 0.00045335063, "MEAN_MOTION_DOT": 2.096e-05, "MEAN_MOTION_DDOT": 0}, "tle": {"line1": "1 33980U 93036FP  25349.94925833  .00002096  00000+0  45335-3 0  9999", "line2": "2 33980  74.0221  53.2789 0028499 197.9624 341.4284 14.58672433888413"}}, "geometry": {"type": "Point", "coordinates": [-7.957513970163553, -71.80845295402928]}}, {"type": "Feature", "properties": {"norad_id": 33982, "name": "COSMOS 2251 DEB", "group": "cosmos-2251-debris", "lat": 25.315395356121563, "lon": 165.49957035786403, "alt_km": 714.9140007661481, "timestamp": "2025-12-16T05:49:09.606517+00:00", "meta": {"OBJECT_NAME": "COSMOS 2251 DEB", "OBJECT_ID": "1993-036FR", "EPOCH": "2025-12-15T09:54:14.249088", "MEAN_MOTION": 14.60222839, "ECCENTRICITY": 0.00751478, "INCLINATION": 74.0708, "RA_OF_ASC_NODE": 354.8438, "ARG_OF_PERICENTER": 38.5509, "MEAN_ANOMALY": 73.8354, "EPHEMERIS_TYPE": 0, "CLASSIFICATION_TYPE": "U", "NORAD_CAT_ID": 33982, "ELEMENT_SET_NO": 999, "REV_AT_EPOCH": 89198, "BSTAR": 0.00036230132, "MEAN_MOTION_DOT": 1.787e-05, "MEAN_MOTION_DDOT": 0}, "tle": {"line1": "1 33982U 93036FR  25349.41266492  .00001787  00000+0  36230-3 0  9992", "line2": "2 33982  74.0708 354.8438 0075147  38.5509  73.8354 14.60222839891984"}}, "geometry": {"type": "Point", "coordinates": [165.49957035786403, 25.315395356121563]}}, {"type": "Feature", "properties": {"norad_id": 33983, "name": "COSMOS 2251 DEB", "group": "cosmos-2251-debris", "lat": -33.841027213921315, "lon": 129.41138195420555, "alt_km": 727.0256167199814, "timestamp": "2025-12-16T05:49:09.606527+00:00", "meta": {"OBJECT_NAME": "COSMOS 2251 DEB", "OBJECT_ID": "1993-036FS", "EPOCH": "2025-12-15T20:44:40.926048", "MEAN_MOTION": 14.50684387, "ECCENTRICITY": 0.00212737, "INCLINATION": 74.0492, "RA_OF_ASC_NODE": 141.1768, "ARG_OF_PERICENTER": 243.8419, "MEAN_ANOMALY": 266.762, "EPHEMERIS_TYPE": 0, "CLASSIFICATION_TYPE": "U", "NORAD_CAT_ID": 33983, "ELEMENT_SET_NO": 999, "REV_AT_EPOCH": 88674, "BSTAR": 0.00043549642, "MEAN_MOTION_DOT": 1.688e-05, "MEAN_MOTION_DDOT": 0}, "tle": {"line1": "1 33983U 93036FS  25349.86436257  .00001688  00000+0  43550-3 0  9993", "line2": "2 33983  74.0492 141.1768 0021273 243.8419 266.7620 14.50684387886746"}}, "geometry": {"type": "Point", "coordinates": [129.41138195420555, -33.841027213921315]}}, {"type": "Feature", "properties": {"norad_id": 33984, "name": "COSMOS 2251 DEB", "group": "cosmos-2251-debris", "lat": -73.92163333695278, "lon": -115.43511403978023, "alt_km": 679.7743131750294, "timestamp": "2025-12-16T05:49:09.606537+00:00", "meta": {"OBJECT_NAME": "COSMOS 2251 DEB", "OBJECT_ID": "1993-036FT", "EPOCH": "2025-12-15T17:58:16.421088", "MEAN_MOTION": 14.6639153, "ECCENTRICITY": 0.00229328, "INCLINATION": 74.0091, "RA_OF_ASC_NODE": 341.2913, "ARG_OF_PERICENTER": 178.5851, "MEAN_ANOMALY": 4.5304, "EPHEMERIS_TYPE": 0, "CLASSIFICATION_TYPE": "U", "NORAD_CAT_ID": 33984, "ELEMENT_SET_NO": 999, "REV_AT_EPOCH": 89110, "BSTAR": 0.00056029013, "MEAN_MOTION_DOT": 3.079e-05, "MEAN_MOTION_DDOT": 0}, "tle": {"line1": "1 33984U 93036FT  25349.74880117  .00003079  00000+0  56029-3 0  9990", "line2": "2 33984  74.0091 341.2913 0022932 178.5851   4.5304 14.66391530891109"}}, "geometry": {"type": "Point", "coordinates": [-115.43511403978023, -73.92163333695278]}}, {"type": "Feature", "properties": {"norad_id": 33986, "name": "COSMOS 2251 DEB", "group": "cosmos-2251-debris", "lat": -16.212367628861877, "lon": -68.60769587134745, "alt_km": 726.0199865854784, "timestamp": "2025-12-16T05:49:09.606547+00:00", "meta": {"OBJECT_NAME": "COSMOS 2251 DEB", "OBJECT_ID": "1993-036FV", "EPOCH": "2025-12-15T21:50:14.180640", "MEAN_MOTION": 14.43222372, "ECCENTRICITY": 0.0040656, "INCLINATION": 74.0366, "RA_OF_ASC_NODE": 296.7839, "ARG_OF_PERICENTER": 8.7733, "MEAN_ANOMALY": 47.3685, "EPHEMERIS_TYPE": 0, "CLASSIFICATION_TYPE": "U", "NORAD_CAT_ID": 33986, "ELEMENT_SET_NO": 999, "REV_AT_EPOCH": 88074, "BSTAR": 0.00057535823, "MEAN_MOTION_DOT": 1.928e-05, "MEAN_MOTION_DDOT": 0}, "tle": {"line1": "1 33986U 93036FV  25349.90988635  .00001928  00000+0  57536-3 0  9999", "line2": "2 33986  74.0366 296.7839 0040656   8.7733  47.3685 14.43222372880740"}}, "geometry": {"type": "Point", "coordinates": [-68.60769587134745, -16.212367628861877]}}, {"type": "Feature", "properties": {"norad_id": 33990, "name": "COSMOS 2251 DEB", "group": "cosmos-2251-debris", "lat": -56.278106935231634, "lon": -105.2162645290615, "alt_km": 775.2981031071504, "timestamp": "2025-12-16T05:49:09.606557+00:00", "meta": {"OBJECT_NAME": "COSMOS 2251 DEB", "OBJECT_ID": "1993-036FZ", "EPOCH": "2025-12-15T21:29:14.263872", "MEAN_MOTION": 13.49998696, "ECCENTRICITY": 0.04075114, "INCLINATION": 73.9283, "RA_OF_ASC_NODE": 280.9283, "ARG_OF_PERICENTER": 300.67, "MEAN_ANOMALY": 112.8186, "EPHEMERIS_TYPE": 0, "CLASSIFICATION_TYPE": "U", "NORAD_CAT_ID": 33990, "ELEMENT_SET_NO": 999, "REV_AT_EPOCH": 82772, "BSTAR": 0.0010489494, "MEAN_MOTION_DOT": 1.094e-05, "MEAN_MOTION_DDOT": 0}, "tle": {"line1": "1 33990U 93036FZ  25349.89530398  .00001094  00000+0  10489-2 0  9990", "line2": "2 33990  73.9283 280.9283 0407511 300.6700 112.8186 13.49998696827721"}}, "geometry": {"type": "Point", "coordinates": [-105.2162645290615, -56.278106935231634]}}, {"type": "Feature", "properties": {"norad_id": 33992, "name": "COSMOS 2251 DEB", "group": "cosmos-2251-debris", "lat": 48.20073564559169, "lon": 132.29183131084716, "alt_km": 640.9752979148534, "timestamp": "2025-12-16T05:49:09.606567+00:00", "meta": {"OBJECT_NAME": "COSMOS 2251 DEB", "OBJECT_ID": "1993-036GB", "EPOCH": "2025-12-15T22:59:24.503136", "MEAN_MOTION": 14.66241532, "ECCENTRICITY": 0.00516517, "INCLINATION": 74.0238, "RA_OF_ASC_NODE": 331.5291, "ARG_OF_PERICENTER": 88.408, "MEAN_ANOMALY": 338.9185, "EPHEMERIS_TYPE": 0, "CLASSIFICATION_TYPE": "U", "NORAD_CAT_ID": 33992, "ELEMENT_SET_NO": 999, "REV_AT_EPOCH": 89172, "BSTAR": 0.00054877554, "MEAN_MOTION_DOT": 3.053e-05, "MEAN_MOTION_DDOT": 0}, "tle": {"line1": "1 33992U 93036GB  25349.95792249  .00003053  00000+0  54878-3 0  9992", "line2": "2 33992  74.0238 331.5291 0051651  88.4080 338.9185 14.66241532891720"}}, "geometry": {"type": "Point", "coordinates": [132.29183131084716, 48.20073564559169]}}, {"type": "Feature", "properties": {"norad_id": 33994, "name": "COSMOS 2251 DEB", "group": "cosmos-2251-debris", "lat": 73.63732520417466, "lon": -99.01614145530401, "alt_km": 757.6649807350732, "timestamp": "2025-12-16T05:49:09.606577+00:00", "meta": {"OBJECT_NAME": "COSMOS 2251 DEB", "OBJECT_ID": "1993-036GD", "EPOCH": "2025-12-15T23:16:18.605856", "MEAN_MOTION": 14.41216591, "ECCENTRICITY": 0.00237521, "INCLINATION": 74.0415, "RA_OF_ASC_NODE": 184.4326, "ARG_OF_PERICENTER": 318.207, "MEAN_ANOMALY": 153.0863, "EPHEMERIS_TYPE": 0, "CLASSIFICATION_TYPE": "U", "NORAD_CAT_ID": 33994, "ELEMENT_SET_NO": 999, "REV_AT_EPOCH": 88466, "BSTAR": 8.8811165e-05, "MEAN_MOTION_DOT": 2.61e-06, "MEAN_MOTION_DDOT": 0}, "tle": {"line1": "1 33994U 93036GD  25349.96965979  .00000261  00000+0  88811-4 0  9990", "line2": "2 33994  74.0415 184.4326 0023752 318.2070 153.0863 14.41216591884661"}}, "geometry": {"type": "Point", "coordinates": [-99.01614145530401, 73.63732520417466]}}, {"type": "Feature", "properties": {"norad_id": 33995, "name": "COSMOS 2251 DEB", "group": "cosmos-2251-debris", "lat": 71.57123684226185, "lon": 171.99706815919066, "alt_km": 738.4722025384835, "timestamp": "2025-12-16T05:49:09.606587+00:00", "meta": {"OBJECT_NAME": "COSMOS 2251 DEB", "OBJECT_ID": "1993-036GE", "EPOCH": "2025-12-15T17:43:53.245344", "MEAN_MOTION": 14.34789623, "ECCENTRICITY": 0.00598921, "INCLINATION": 74.0609, "RA_OF_ASC_NODE": 113.8646, "ARG_OF_PERICENTER": 127.4558, "MEAN_ANOMALY": 233.2064, "EPHEMERIS_TYPE": 0, "CLASSIFICATION_TYPE": "U", "NORAD_CAT_ID": 33995, "ELEMENT_SET_NO": 999, "REV_AT_EPOCH": 87562, "BSTAR": 0.00069637998, "MEAN_MOTION_DOT": 1.99e-05, "MEAN_MOTION_DDOT": 0}, "tle": {"line1": "1 33995U 93036GE  25349.73881071  .00001990  00000+0  69638-3 0  9991", "line2": "2 33995  74.0609 113.8646 0059892 127.4558 233.2064 14.34789623875626"}}, "geometry": {"type": "Point", "coordinates": [171.99706815919066, 71.57123684226185]}}, {"type": "Feature", "properties": {"norad_id": 33999, "name": "COSMOS 2251 DEB", "group": "cosmos-2251-debris", "lat": 45.72330485549026, "lon": 26.582483668397607, "alt_km": 583.9273332447383, "timestamp": "2025-12-16T05:49:09.606597+00:00", "meta": {"OBJECT_NAME": "COSMOS 2251 DEB", "OBJECT_ID": "1993-036GJ", "EPOCH": "2025-12-15T17:54:00.897408", "MEAN_MOTION": 14.83431625, "ECCENTRICITY": 0.00444384, "INCLINATION": 73.9189, "RA_OF_ASC_NODE": 224.7811, "ARG_OF_PERICENTER": 119.4893, "MEAN_ANOMALY": 241.0728, "EPHEMERIS_TYPE": 0, "CLASSIFICATION_TYPE": "U", "NORAD_CAT_ID": 33999, "ELEMENT_SET_NO": 999, "REV_AT_EPOCH": 89295, "BSTAR": 0.0007912315, "MEAN_MOTION_DOT": 6.581e-05, "MEAN_MOTION_DDOT": 0}, "tle": {"line1": "1 33999U 93036GJ  25349.74584372  .00006581  00000+0  79123-3 0  9991", "line2": "2 33999  73.9189 224.7811 0044438 119.4893 241.0728 14.83431625892959"}}, "geometry": {"type": "Point", "coordinates": [26.582483668397607, 45.72330485549026]}}]}